#aV2009  2 15  0  0   .00000000      96 DD+AD WGS84 FIT  NGA
## 1519       .00000000   900.00000000 54877  .0000000000000
+   31     2  3  4  5  6  7  8  9 10 11 12 13 14 15 16 17 18
+         19 20 21 22 23 24 25 26 27 28 29 30 31 32  0  0  0
+          0  0  0  0  0  0  0  0  0  0  0  0  0  0  0  0  0
+          0  0  0  0  0  0  0  0  0  0  0  0  0  0  0  0  0
+          0  0  0  0  0  0  0  0  0  0  0  0  0  0  0  0  0
++         0  0  0  0  0  0  0  0  0  0  0  0  0  0  0  0  0
++         0  0  0  0  0  0  0  0  0  0  0  0  0  0  0  0  0
++         0  0  0  0  0  0  0  0  0  0  0  0  0  0  0  0  0
++         0  0  0  0  0  0  0  0  0  0  0  0  0  0  0  0  0
++         0  0  0  0  0  0  0  0  0  0  0  0  0  0  0  0  0
%c cc cc ccc ccc cccc cccc cccc cccc ccccc ccccc ccccc ccccc
%c cc cc ccc ccc cccc cccc cccc cccc ccccc ccccc ccccc ccccc
%f  0.0000000  0.000000000  0.00000000000  0.000000000000000
%f  0.0000000  0.000000000  0.00000000000  0.000000000000000
%i    0    0    0    0      0      0      0      0         0
%i    0    0    0    0      0      0      0      0         0
/*      NGA, ST. LOUIS,MO.                                  
/*   EPHEMERIS COMPUTED FROM  3 DAYS OF DATA                
/* CCCCCCCCCCCCCCCCCCCCCCCCCCCCCCCCCCCCCCCCCCCCCCCCCCCCCCCCC
/* CCCCCCCCCCCCCCCCCCCCCCCCCCCCCCCCCCCCCCCCCCCCCCCCCCCCCCCCC
*  2009  2 15 14 30   .00000000                                                 
P  2  -8977.041568 -20669.670098  14240.022094    157.318956                    
V  2  15576.261257   9663.399617  23254.032001      -.012822                    
P  3   4752.297723  15514.219745 -21303.610695    353.441238                    
V  3 -23971.363157  11369.531840   3331.378300       .052130                    
P  4   5201.258252 -15444.649134  20783.131826   -337.624765                    
V  4  21129.487806  16565.241374   7346.101543      -.140377                    
P  5 -14677.177547  -6343.365851  20927.753647   -678.847793                    
V  5   2719.031153 -27174.449453  -6120.707142      -.472089                    
P  6  -1215.515548  16811.330152 -20333.112036     55.598565                    
V  6 -24729.072585   9162.681037   9002.892665      -.146627                    
P  7  20544.833239   2017.696132 -16788.893383     22.626468                    
V  7  15258.868919  14855.135558  20369.773235      -.003432                    
P  8  11862.562731  -8904.141034 -22115.148957   -190.775330                    
V  8  20330.625643  19021.549402   2773.960500      -.016835                    
P  9 -21672.794079 -15247.811783   1845.021468     40.595164                    
V  9  -1036.582283  -3746.129261 -31884.440549       .020348                    
P 10  -3430.407067 -23643.128149 -11389.419998    -11.208111                    
V 10   5397.860682 -13559.125934  27221.582685      -.005301                    
P 11  24270.063065  11022.599800   2025.973948      7.428274                    
V 11    276.059171   5469.062444 -29740.988236      -.011571                    
P 12 -12955.661016 -10029.305071  21001.949656   -315.753710                    
V 12   5316.466483 -25922.886268  -9027.298656       .038305                    
P 13  25711.905212  -5015.256683   4228.765555    288.641707                    
V 13  -4765.167097   3240.090161  31920.226842       .012686                    
P 14 -17154.975935  15043.288233  13622.619759   -153.803112                    
V 14 -16725.761035   3840.663101 -25631.478851       .053603                    
P 15 -13900.851700  -9983.262182 -20293.928766   -257.048548                    
V 15  23761.867610 -10190.545741 -11195.184918      -.052088                    
P 16  -1479.040152  25889.406435  -5098.815565     74.435859                    
V 16  -3941.883645   5943.616303  31167.808426      -.028394                    
P 17  18795.823139 -14907.461702  11243.978331     47.169125                    
V 17  14312.939055  -2286.806588 -27269.806886       .010509                    
P 18 -15538.489152  11628.648185 -17760.079331    -83.142000                    
V 18   2593.612240 -23115.562657 -17560.724527       .035819                    
P 19  16083.535684   9289.629198 -19007.462482     32.350623                    
V 19 -22900.819053   7938.249486 -15216.060757      -.006314                    
P 20  14429.885844   6884.735033  21088.889995     90.701202                    
V 20  -4620.829016  26739.985895  -5486.215692      -.010769                    
P 21 -18864.688786   1828.318239 -18607.998119     28.905975                    
V 21 -17128.032488 -16869.283916  14895.594062      -.018518                    
P 22 -11804.940704  21626.758453  -9686.349678    205.053289                    
V 22   -464.924061 -12952.993075 -27964.970144      -.007839                    
P 23  22911.520472   1547.595293  13527.800418    387.031219                    
V 23 -15502.634622   7514.850114  25041.902737       .006276                    
P 24 -21974.970709 -11129.276398  -9439.206980    165.784302                    
V 24  -6942.483658 -10581.038898  28499.078764       .031086                    
P 25  23064.167120   6937.028275 -10620.402296    244.035640                    
V 25  10203.961841  10011.750855  27956.441741       .246665                    
P 26  -7661.613008 -12941.929150 -22449.761662     44.764837                    
V 26  25931.998452  -7961.861669  -3844.238902       .028213                    
P 27   -811.681038 -17173.245556 -19570.178960     24.898638                    
V 27  21872.283758  14661.002403 -13395.294588       .030626                    
P 28  12249.315171 -20103.270392 -11547.086136    -23.642221                    
V 28   -526.312820  15636.876009 -27133.935230       .000650                    
P 29 -25546.951057   4413.012889   5792.302247     -9.787032                    
V 29   5958.476345  -4935.718162  30619.972340       .033662                    
P 30 -15502.749148   4064.235063  20806.981970    126.543109                    
V 30   2737.664309 -27180.062342   7307.246933       .025530                    
P 31  -2145.203237  16656.551589  20760.015727    -51.661578                    
V 31 -20465.221406 -15857.627016  10846.216065      -.013220                    
P 32   9837.663144  15709.817401  19517.144721    295.152087                    
V 32  -7055.072515  22781.672447 -14865.117449      -.034018                    
EOF
